{"type": "FeatureCollection", "features": [ {"type": "Feature", "properties": {"norad_id": 67131, "name": "ZIYUAN 3-04 (ZY 3-04)", "group": "last-30-days", "lat": -9.512428437347888, "lon": -110.54913585832327, "alt_km": 504.78785890451763, "timestamp": "2025-12-22T15:43:47.689106+00:00", "meta": {"OBJECT_NAME": "ZIYUAN 3-04 (ZY 3-04)", "OBJECT_ID": "2025-300A", "EPOCH": "2025-12-21T18:22:34.187808", "MEAN_MOTION": 15.21179479, "ECCENTRICITY": 0.00027623, "INCLINATION": 97.4922, "RA_OF_ASC_NODE": 69.8294, "ARG_OF_PERICENTER": 167.6924, "MEAN_ANOMALY": 192.438, "EPHEMERIS_TYPE": 0, "CLASSIFICATION_TYPE": "U", "NORAD_CAT_ID": 67131, "ELEMENT_SET_NO": 999, "REV_AT_EPOCH": 86, "BSTAR": 6.5769783e-05, "MEAN_MOTION_DOT": 1.396e-05, "MEAN_MOTION_DDOT": 0}, "tle": {"line1": "1 67131U 25300A   25355.76567347  .00001396  00000+0  65770-4 0  9990", "line2": "2 67131  97.4922  69.8294 0002762 167.6924 192.4380 15.21179479   860"}}, "geometry": {"type": "Point", "coordinates": [-110.54913585832327, -9.512428437347888]}}, {"type": "Feature", "properties": {"norad_id": 67132, "name": "CZ-4B R/B", "group": "last-30-days", "lat": 72.88576070219058, "lon": 45.68905282097381, "alt_km": 346.57588937854507, "timestamp": "2025-12-22T15:43:47.689116+00:00", "meta": {"OBJECT_NAME": "CZ-4B R/B", "OBJECT_ID": "2025-300B", "EPOCH": "2025-12-18T16:13:04.609056", "MEAN_MOTION": 15.63831828, "ECCENTRICITY": 0.01741973, "INCLINATION": 97.5563, "RA_OF_ASC_NODE": 66.966, "ARG_OF_PERICENTER": 9.3582, "MEAN_ANOMALY": 351.0851, "EPHEMERIS_TYPE": 0, "CLASSIFICATION_TYPE": "U", "NORAD_CAT_ID": 67132, "ELEMENT_SET_NO": 999, "REV_AT_EPOCH": 40, "BSTAR": 0.00019566238, "MEAN_MOTION_DOT": 0.00040543, "MEAN_MOTION_DDOT": 2.652968e-06}, "tle": {"line1": "1 67132U 25300B   25352.67574779  .00040543  26530-5  19566-3 0  9995", "line2": "2 67132  97.5563  66.9660 0174197   9.3582 351.0851 15.63831828   407"}}, "geometry": {"type": "Point", "coordinates": [45.68905282097381, 72.88576070219058]}}, {"type": "Feature", "properties": {"norad_id": 67160, "name": "GALILEO A", "group": "last-30-days", "lat": -50.92711377895396, "lon": 44.71698914060765, "alt_km": 22933.45796341928, "timestamp": "2025-12-22T15:43:47.689127+00:00", "meta": {"OBJECT_NAME": "GALILEO A", "OBJECT_ID": "2025-302A", "EPOCH": "2025-12-18T03:30:19.486368", "MEAN_MOTION": 1.72906186, "ECCENTRICITY": 0.00084238, "INCLINATION": 54.2406, "RA_OF_ASC_NODE": 107.2544, "ARG_OF_PERICENTER": 237.6458, "MEAN_ANOMALY": 122.2317, "EPHEMERIS_TYPE": 0, "CLASSIFICATION_TYPE": "U", "NORAD_CAT_ID": 67160, "ELEMENT_SET_NO": 999, "REV_AT_EPOCH": 2, "BSTAR": 0, "MEAN_MOTION_DOT": -7e-08, "MEAN_MOTION_DDOT": 0}, "tle": {"line1": "1 67160U 25302A   25352.14605887 -.00000007  00000+0  00000+0 0  9994", "line2": "2 67160  54.2406 107.2544 0008423 237.6458 122.2317  1.72906186    28"}}, "geometry": {"type": "Point", "coordinates": [44.71698914060765, -50.92711377895396]}}, {"type": "Feature", "properties": {"norad_id": 67161, "name": "GALILEO B", "group": "last-30-days", "lat": -50.43874866278148, "lon": 46.46894137841643, "alt_km": 22930.814890112248, "timestamp": "2025-12-22T15:43:47.689140+00:00", "meta": {"OBJECT_NAME": "GALILEO B", "OBJECT_ID": "2025-302B", "EPOCH": "2025-12-19T07:14:53.290752", "MEAN_MOTION": 1.72972192, "ECCENTRICITY": 0.00045866, "INCLINATION": 54.2272, "RA_OF_ASC_NODE": 107.1916, "ARG_OF_PERICENTER": 255.0301, "MEAN_ANOMALY": 104.8802, "EPHEMERIS_TYPE": 0, "CLASSIFICATION_TYPE": "U", "NORAD_CAT_ID": 67161, "ELEMENT_SET_NO": 999, "REV_AT_EPOCH": 5, "BSTAR": 0, "MEAN_MOTION_DOT": -5e-08, "MEAN_MOTION_DDOT": 0}, "tle": {"line1": "1 67161U 25302B   25353.30200568 -.00000005  00000+0  00000+0 0  9999", "line2": "2 67161  54.2272 107.1916 0004586 255.0301 104.8802  1.72972192    57"}}, "geometry": {"type": "Point", "coordinates": [46.46894137841643, -50.43874866278148]}}, {"type": "Feature", "properties": {"norad_id": 67162, "name": "ARIANE 6 R/B", "group": "last-30-days", "lat": -49.199022880383794, "lon": 50.663876228482714, "alt_km": 22924.599758590382, "timestamp": "2025-12-22T15:43:47.689151+00:00", "meta": {"OBJECT_NAME": "ARIANE 6 R/B", "OBJECT_ID": "2025-302C", "EPOCH": "2025-12-19T07:12:31.071168", "MEAN_MOTION": 1.73130298, "ECCENTRICITY": 2.559e-05, "INCLINATION": 54.2437, "RA_OF_ASC_NODE": 107.222, "ARG_OF_PERICENTER": 160.7324, "MEAN_ANOMALY": 199.2296, "EPHEMERIS_TYPE": 0, "CLASSIFICATION_TYPE": "U", "NORAD_CAT_ID": 67162, "ELEMENT_SET_NO": 999, "REV_AT_EPOCH": 8, "BSTAR": 0, "MEAN_MOTION_DOT": -5e-08, "MEAN_MOTION_DDOT": 0}, "tle": {"line1": "1 67162U 25302C   25353.30035962 -.00000005  00000+0  00000+0 0  9994", "line2": "2 67162  54.2437 107.2220 0000255 160.7324 199.2296  1.73130298    88"}}, "geometry": {"type": "Point", "coordinates": [50.663876228482714, -49.199022880383794]}}, {"type": "Feature", "properties": {"norad_id": 67219, "name": "DISKSAT A", "group": "last-30-days", "lat": 43.679114223943785, "lon": 45.23236786290864, "alt_km": 545.168367701277, "timestamp": "2025-12-22T15:43:47.689162+00:00", "meta": {"OBJECT_NAME": "DISKSAT A", "OBJECT_ID": "2025-305A", "EPOCH": "2025-12-20T09:08:30.149664", "MEAN_MOTION": 15.05762698, "ECCENTRICITY": 0.0003912, "INCLINATION": 45.0057, "RA_OF_ASC_NODE": 310.0654, "ARG_OF_PERICENTER": 276.1097, "MEAN_ANOMALY": 83.9332, "EPHEMERIS_TYPE": 0, "CLASSIFICATION_TYPE": "U", "NORAD_CAT_ID": 67219, "ELEMENT_SET_NO": 999, "REV_AT_EPOCH": 33, "BSTAR": 5.0887e-05, "MEAN_MOTION_DOT": 5.1e-06, "MEAN_MOTION_DDOT": 0}, "tle": {"line1": "1 67219U 25305A   25354.38090451  .00000510  00000+0  50887-4 0  9996", "line2": "2 67219  45.0057 310.0654 0003912 276.1097  83.9332 15.05762698   337"}}, "geometry": {"type": "Point", "coordinates": [45.23236786290864, 43.679114223943785]}}, {"type": "Feature", "properties": {"norad_id": 67220, "name": "DISKSAT B", "group": "last-30-days", "lat": 43.865686377615184, "lon": 44.017170814488274, "alt_km": 545.873057552084, "timestamp": "2025-12-22T15:43:47.689175+00:00", "meta": {"OBJECT_NAME": "DISKSAT B", "OBJECT_ID": "2025-305B", "EPOCH": "2025-12-20T05:57:31.803264", "MEAN_MOTION": 15.05702195, "ECCENTRICITY": 0.0004681, "INCLINATION": 45.0108, "RA_OF_ASC_NODE": 310.7693, "ARG_OF_PERICENTER": 270.4757, "MEAN_ANOMALY": 89.5581, "EPHEMERIS_TYPE": 0, "CLASSIFICATION_TYPE": "U", "NORAD_CAT_ID": 67220, "ELEMENT_SET_NO": 999, "REV_AT_EPOCH": 31, "BSTAR": 5.1086e-05, "MEAN_MOTION_DOT": 5.11e-06, "MEAN_MOTION_DDOT": 0}, "tle": {"line1": "1 67220U 25305B   25354.24828476  .00000511  00000+0  51086-4 0  9992", "line2": "2 67220  45.0108 310.7693 0004681 270.4757  89.5581 15.05702195   312"}}, "geometry": {"type": "Point", "coordinates": [44.017170814488274, 43.865686377615184]}}, {"type": "Feature", "properties": {"norad_id": 67221, "name": "DISKSAT C", "group": "last-30-days", "lat": 44.01793553057883, "lon": 42.87608885659452, "alt_km": 545.680084674329, "timestamp": "2025-12-22T15:43:47.689186+00:00", "meta": {"OBJECT_NAME": "DISKSAT C", "OBJECT_ID": "2025-305C", "EPOCH": "2025-12-20T07:33:11.308608", "MEAN_MOTION": 15.0565367, "ECCENTRICITY": 0.00043877, "INCLINATION": 45.0067, "RA_OF_ASC_NODE": 310.4143, "ARG_OF_PERICENTER": 282.7791, "MEAN_ANOMALY": 77.2594, "EPHEMERIS_TYPE": 0, "CLASSIFICATION_TYPE": "U", "NORAD_CAT_ID": 67221, "ELEMENT_SET_NO": 999, "REV_AT_EPOCH": 31, "BSTAR": 0.00010190761, "MEAN_MOTION_DOT": 1.256e-05, "MEAN_MOTION_DDOT": 0}, "tle": {"line1": "1 67221U 25305C   25354.31471422  .00001256  00000+0  10191-3 0  9994", "line2": "2 67221  45.0067 310.4143 0004387 282.7791  77.2594 15.05653670   312"}}, "geometry": {"type": "Point", "coordinates": [42.87608885659452, 44.01793553057883]}}, {"type": "Feature", "properties": {"norad_id": 67222, "name": "DISKSAT D", "group": "last-30-days", "lat": 44.25008370628872, "lon": 40.989719087183936, "alt_km": 545.8656950953527, "timestamp": "2025-12-22T15:43:47.689196+00:00", "meta": {"OBJECT_NAME": "DISKSAT D", "OBJECT_ID": "2025-305D", "EPOCH": "2025-12-20T07:33:21.625632", "MEAN_MOTION": 15.05567005, "ECCENTRICITY": 0.00044772, "INCLINATION": 45.0056, "RA_OF_ASC_NODE": 310.415, "ARG_OF_PERICENTER": 287.6101, "MEAN_ANOMALY": 72.4284, "EPHEMERIS_TYPE": 0, "CLASSIFICATION_TYPE": "U", "NORAD_CAT_ID": 67222, "ELEMENT_SET_NO": 999, "REV_AT_EPOCH": 31, "BSTAR": 0.00010184381, "MEAN_MOTION_DOT": 1.252e-05, "MEAN_MOTION_DDOT": 0}, "tle": {"line1": "1 67222U 25305D   25354.31483363  .00001252  00000+0  10184-3 0  9990", "line2": "2 67222  45.0056 310.4150 0004477 287.6101  72.4284 15.05567005   317"}}, "geometry": {"type": "Point", "coordinates": [40.989719087183936, 44.25008370628872]}}, {"type": "Feature", "properties": {"norad_id": 67223, "name": "ELECTRON KICK STAGE R/B", "group": "last-30-days", "lat": 33.41847191318824, "lon": -22.166287645657054, "alt_km": 460.6658811431962, "timestamp": "2025-12-22T15:43:47.689206+00:00", "meta": {"OBJECT_NAME": "ELECTRON KICK STAGE R/B", "OBJECT_ID": "2025-305E", "EPOCH": "2025-12-20T06:12:15.244992", "MEAN_MOTION": 15.47983126, "ECCENTRICITY": 0.01793228, "INCLINATION": 44.9975, "RA_OF_ASC_NODE": 310.0187, "ARG_OF_PERICENTER": 148.745, "MEAN_ANOMALY": 212.425, "EPHEMERIS_TYPE": 0, "CLASSIFICATION_TYPE": "U", "NORAD_CAT_ID": 67223, "ELEMENT_SET_NO": 999, "REV_AT_EPOCH": 32, "BSTAR": 0.0001630388, "MEAN_MOTION_DOT": 0.00016328, "MEAN_MOTION_DDOT": 0}, "tle": {"line1": "1 67223U 25305E   25354.25850978  .00016328  00000+0  16304-3 0  9994", "line2": "2 67223  44.9975 310.0187 0179322 148.7450 212.4250 15.47983126   320"}}, "geometry": {"type": "Point", "coordinates": [-22.166287645657054, 33.41847191318824]}}]}